{"type":"FeatureCollection","features":[{"type":"Feature","id":"way/104016277","properties":{"addr:city":"Regensburg","addr:country":"DE","addr:housenumber":"4","addr:postcode":"93047","addr:street":"Bismarckplatz","amenity":"bar","building":"commercial","building:levels":"3","name":"Marple & Stringer","opening_hours":"Mo-Fr 11:00-15:00,17:00-02:00, Sa,Su 10:00-02:00","roof:levels":"1","wheelchair":"limited","id":"way/104016277"},"geometry":{"type":"Polygon","coordinates":[[[12.0892389,49.0187158],[12.0892448,49.0187763],[12.0892456,49.0187846],[12.0890621,49.0187944],[12.0890573,49.0187231],[12.0892389,49.0187158]]]}},{"type":"Feature","id":"node/359841593","properties":{"addr:city":"Regensburg","addr:country":"DE","addr:housenumber":"1","addr:postcode":"93047","addr:street":"Unter den Schwibbögen","amenity":"bar","name":"Wuid & Schee","phone":"+49 171 3637996","smoking":"no","wheelchair":"no","id":"node/359841593"},"geometry":{"type":"Point","coordinates":[12.0976892,49.0203765]}},{"type":"Feature","id":"node/362778890","properties":{"amenity":"bar","name":"Orange Bar","opening_hours":"Tu-Th 20:00-01:00, Fr,Sa 20:00-03:00","website":"http://www.orange-bar-regensburg.de/","wheelchair":"no","id":"node/362778890"},"geometry":{"type":"Point","coordinates":[12.0936159,49.0211379]}},{"type":"Feature","id":"node/542560592","properties":{"addr:city":"Regensburg","addr:country":"DE","addr:housenumber":"9","addr:postcode":"93047","addr:street":"Obermünsterstraße","amenity":"bar","name":"da Silva","opening_hours":"Tu, Th-Sa 21:00-02:00","toilets:wheelchair":"no","wheelchair":"limited","id":"node/542560592"},"geometry":{"type":"Point","coordinates":[12.0959919,49.0166878]}},{"type":"Feature","id":"node/651792488","properties":{"addr:city":"Regensburg","addr:country":"DE","addr:housenumber":"2","addr:postcode":"93047","addr:street":"Baumhackergasse","amenity":"bar","name":"Flannigan's","opening_hours":"Mo-Th 19:00-01:00, Fr-Sa 19:00-02:00","phone":"+49 941 53481","wheelchair":"no","id":"node/651792488"},"geometry":{"type":"Point","coordinates":[12.0940149,49.0210155]}},{"type":"Feature","id":"node/652855128","properties":{"addr:city":"Regensburg","addr:country":"DE","addr:housenumber":"11","addr:postcode":"93047","addr:street":"Keplerstraße","amenity":"bar","name":"Wunderbar","opening_hours":"Su-Th 21:00-03:00, Fr-Sa 21:00-04:00","website":"http://www.wunderbar.de","wheelchair":"no","id":"node/652855128"},"geometry":{"type":"Point","coordinates":[12.0927913,49.021261]}},{"type":"Feature","id":"node/779127403","properties":{"addr:housenumber":"5","addr:street":"Hinter der Grieb","amenity":"bar","email":"kontakt@ka5per.de","name":"Ka5par","phone":"+49 941 59579099","website":"http://ka5per.de","wheelchair":"limited","id":"node/779127403"},"geometry":{"type":"Point","coordinates":[12.0942687,49.0189923]}},{"type":"Feature","id":"node/1203984719","properties":{"addr:city":"Regensburg","addr:country":"DE","addr:housenumber":"2","addr:postcode":"93047","addr:street":"Am Wiedfang","amenity":"bar","level":"0;1","name":"Mood","opening_hours":"Mo-Sa 19:00-02:00","phone":"+49 151 58559894","website":"http://mood-regensburg.de","wheelchair":"no","id":"node/1203984719"},"geometry":{"type":"Point","coordinates":[12.0964679,49.0211935]}},{"type":"Feature","id":"node/1226710037","properties":{"addr:city":"Regensburg","addr:housenumber":"1","addr:postcode":"93047","addr:street":"Jakobstraße","amenity":"bar","email":"cafeblomberg@gmail.com","name":"Blomberg","opening_hours":"Mo-Su 10:00-24:00","phone":"+49 941 465 235 82","wheelchair":"limited","id":"node/1226710037"},"geometry":{"type":"Point","coordinates":[12.0890521,49.0189563]}},{"type":"Feature","id":"node/1226710556","properties":{"amenity":"bar","name":"Heigl´s","wheelchair":"limited","id":"node/1226710556"},"geometry":{"type":"Point","coordinates":[12.0891942,49.02049]}},{"type":"Feature","id":"node/1482353095","properties":{"addr:city":"Regensburg","addr:housenumber":"2","addr:postcode":"93047","addr:street":"Haidplatz","amenity":"bar","contact:email":"info@noahregensburg.de","contact:fax":"+49 941 5866-168","contact:phone":"+49 941 5866-140","contact:website":"http://www.regensburghotel.de/altstadthotel-arch/cafe-noah/herzlich-willkommen","internet_access":"wlan","internet_access:fee":"no","name":"NOAH Café / Bar / Lounge","smoking":"no","wheelchair":"limited","id":"node/1482353095"},"geometry":{"type":"Point","coordinates":[12.0933624,49.0194795]}},{"type":"Feature","id":"node/2357397773","properties":{"addr:housenumber":"3","addr:street":"Spiegelgasse","amenity":"bar","email":"christianschoenek@web.de","name":"U-Bar","opening_hours":"Tu,Fr,Sa 22:00-02:00, We 22:00-01:00, Th 21:30-02:00","website":"http://www.u-bar-regensburg.net","wheelchair":"no","id":"node/2357397773"},"geometry":{"type":"Point","coordinates":[12.094138,49.0178327]}},{"type":"Feature","id":"node/3414176185","properties":{"amenity":"bar","contact:phone":"+49 1512 5206275","name":"Dudes4","opening_hours":"Mo-Su 19:00+","website":"http://dudes4.de/","id":"node/3414176185"},"geometry":{"type":"Point","coordinates":[12.1005055,49.0201466]}},{"type":"Feature","id":"node/3500867001","properties":{"addr:city":"Regensburg","addr:housenumber":"4","addr:postcode":"93047","addr:street":"Arnulfsplatz","amenity":"bar","email":"info@tikibeat.de","name":"Tikibeat","phone":"+49 941 93081758","website":"http://www.tikibeat.de/","wheelchair":"no","id":"node/3500867001"},"geometry":{"type":"Point","coordinates":[12.0891782,49.0198175]}},{"type":"Feature","id":"node/3500873484","properties":{"addr:city":"Regensburg","addr:housenumber":"7","addr:postcode":"93047","addr:street":"Drei-Mohren-Straße","amenity":"bar","name":"Il Bar","opening_hours":"08:00-20:00","phone":"+49 941 59854120","smoking":"outside","wheelchair":"yes","id":"node/3500873484"},"geometry":{"type":"Point","coordinates":[12.0902571,49.0194675]}},{"type":"Feature","id":"node/3615355766","properties":{"amenity":"bar","name":"Upper","id":"node/3615355766"},"geometry":{"type":"Point","coordinates":[12.0981283,49.0189608]}},{"type":"Feature","id":"node/3970730447","properties":{"addr:city":"Regensburg","addr:housenumber":"10","addr:postcode":"93047","addr:street":"Goldene-Bären-Straße","amenity":"bar","email":"info@kosmonaut-bar.de","name":"Kosmonaut","opening_hours":"Tu-Sa 20:00-02:00","wheelchair":"limited","wheelchair:description":"vielleicht mit Handrolli und Hilfe möglich. Behinderten gerechtes WC unklar","id":"node/3970730447"},"geometry":{"type":"Point","coordinates":[12.0965443,49.0209162]}},{"type":"Feature","id":"node/4421890292","properties":{"addr:housenumber":"18","addr:postcode":"93047","addr:street":"Winklergasse","amenity":"bar","name":"Jekyll&Hyde BVB FanClub Donau Pöhler","name:de":"Jekyll&Hyde BVB FanClub Donau Pöhler","phone":"+49 941 46184448","id":"node/4421890292"},"geometry":{"type":"Point","coordinates":[12.0877101,49.0205653]}},{"type":"Feature","id":"node/5451569921","properties":{"addr:postcode":"93047","amenity":"bar","name":"Mira Regensburg","id":"node/5451569921"},"geometry":{"type":"Point","coordinates":[12.094145,49.0179875]}},{"type":"Feature","id":"node/6606417786","properties":{"amenity":"bar","name":"Barock Bar","opening_hours":"Mo-Su 20:00-00:00","id":"node/6606417786"},"geometry":{"type":"Point","coordinates":[12.0968144,49.0199932]}},{"type":"Feature","id":"node/4957283050","properties":{"addr:postcode":"93047","amenity":"bar","name":"Vincent","opening_hours":"Mo-We 08:30-22:00; Th-Sa 08:30-01:00","phone":"+49 941 3822 5598","id":"node/4957283050"},"geometry":{"type":"Point","coordinates":[12.0987765,49.0157858]}}]}