{"type":"FeatureCollection","features":[{"type":"Feature","id":"way/398378990","properties":{"addr:city":"Regensburg","addr:country":"DE","addr:housenumber":"6","addr:postcode":"93047","addr:street":"Emmeramsplatz","amenity":"cafe","building":"commercial","building:levels":"1","building:material":"glass","email":"post@antoinette.cafe","loc_name":"Schlosscafé","name":"Café Antoinette","opening_hours":"Tu-Su 10:00-18:00","operator":"EinSchmaus GmbH","phone":"+49 941 58619840","roof:shape":"flat","website":"http://antoinette.cafe/","id":"way/398378990"},"geometry":{"type":"Polygon","coordinates":[[[12.0921403,49.0154027],[12.0921063,49.0152703],[12.0921493,49.0152655],[12.0921833,49.0153979],[12.0921403,49.0154027]]]}},{"type":"Feature","id":"way/252421864","properties":{"addr:city":"Regensburg","addr:country":"DE","addr:housenumber":"14","addr:postcode":"93047","addr:street":"Albertstraße","alt_name":"Regensburger Schwammerl","amenity":"cafe","building":"commercial","building:levels":"1","name":"Milchschwammerl","opening_hours":"Mo-Su 09:30-19:00; Sa off; Dec-Feb off","roof:shape":"pyramidal","wheelchair":"limited","id":"way/252421864"},"geometry":{"type":"Polygon","coordinates":[[[12.0989556,49.013503],[12.0989465,49.0135086],[12.0989352,49.0135119],[12.0989229,49.0135127],[12.0989108,49.0135108],[12.0989003,49.0135064],[12.0988926,49.0135],[12.0988885,49.0134923],[12.0988883,49.0134842],[12.0988923,49.0134764],[12.0988998,49.01347],[12.0989101,49.0134654],[12.0989221,49.0134634],[12.0989345,49.013464],[12.0989459,49.0134672],[12.0989551,49.0134726],[12.0989612,49.0134797],[12.0989633,49.0134878],[12.0989614,49.0134958],[12.0989556,49.013503]]]}},{"type":"Feature","id":"node/318111832","properties":{"amenity":"cafe","name":"Paletti","opening_hours":"Mo-Sa 08:00-01:00, Su 16:00-01:00","phone":"+49 941 51593","toilets:wheelchair":"yes","wheelchair":"limited","id":"node/318111832"},"geometry":{"type":"Point","coordinates":[12.0927167,49.0188639]}},{"type":"Feature","id":"node/410416597","properties":{"amenity":"cafe","fax":"+49 941 2060632","name":"Black Bean","opening_hours":"Mo-Fr 08:00-20:00, Sa 10:00-20:00, Su 10:00-19:00","phone":"+49 941 2060631","smoking":"no","website":"https://www.black-bean.de/","wheelchair":"limited","id":"node/410416597"},"geometry":{"type":"Point","coordinates":[12.0931344,49.0184417]}},{"type":"Feature","id":"node/410416737","properties":{"addr:housenumber":"5","addr:street":"Gesandtenstraße","amenity":"cafe","name":"anna","opening_hours":"Mo-We 09:00-20:00; Th-Sa 09:00-23:00; Su 10:00-19:00","operator":"Kaffeemanufaktur von Jena GbR","phone":"+49 941 2060230","smoking":"no","website":"http://www.anna-cafe.de","wheelchair":"limited","id":"node/410416737"},"geometry":{"type":"Point","coordinates":[12.0931131,49.0183365]}},{"type":"Feature","id":"node/410417209","properties":{"addr:housenumber":"7","addr:street":"Haidplatz","amenity":"cafe","name":"Goldenes Kreuz","opening_hours":"Mo-Fr 07:00-19:00; Sa 07:30-19:00; Su 09:00-19:00","phone":"+49-941-57232","wheelchair":"limited","id":"node/410417209"},"geometry":{"type":"Point","coordinates":[12.09255,49.0198844]}},{"type":"Feature","id":"node/410417271","properties":{"addr:city":"Regensburg","addr:country":"DE","addr:housenumber":"5","addr:postcode":"93047","addr:street":"Untere Bachgasse","amenity":"cafe","email":"c.cafe@protonmail.com","internet_access:fee":"no","name":"Café Charlotte","opening_hours":"Mo-Su 10:00-21:00","outdoor_seating":"yes","phone":"+49 176 78154854","website":"https://cafe-charlotte.metro.bar","wheelchair":"no","id":"node/410417271"},"geometry":{"type":"Point","coordinates":[12.0950518,49.0195375]}},{"type":"Feature","id":"node/410417464","properties":{"addr:city":"Regensburg","addr:country":"DE","addr:housenumber":"1","addr:postcode":"93047","addr:street":"Untere Bachgasse","amenity":"cafe","contact:phone":"+49 941 5865362","contact:website":"http://www.senseason.com/","name":"Senseason Friseur","opening_hours":"Mo,Tu,Th 09:00-18:00; We 09:00-20:00; Sa 09:00-15:00; PH off","shop":"hairdresser","wheelchair":"no","id":"node/410417464"},"geometry":{"type":"Point","coordinates":[12.0951235,49.0199396]}},{"type":"Feature","id":"node/410417809","properties":{"addr:city":"Regensburg","addr:country":"DE","addr:housenumber":"2","addr:postcode":"93047","addr:street":"Rathausplatz","amenity":"cafe","contact:phone":"+49 941 595310","contact:website":"http://www.cafe-prinzess.de/","name":"Café Prinzess","opening_hours":"Mo-Sa 09:00-19:00; Su 10:00-19:00","wheelchair":"no","wikidata":"Q1025655","wikipedia":"de:Café Prinzess","id":"node/410417809"},"geometry":{"type":"Point","coordinates":[12.0948965,49.0201033]}},{"type":"Feature","id":"node/410417833","properties":{"amenity":"cafe","name":"Bar Centro","wheelchair":"limited","id":"node/410417833"},"geometry":{"type":"Point","coordinates":[12.0901441,49.0191305]}},{"type":"Feature","id":"node/462552298","properties":{"addr:city":"Regensburg","addr:country":"DE","addr:housenumber":"6","addr:postcode":"93047","addr:street":"Neupfarrplatz","amenity":"cafe","diet:vegan":"yes","diet:vegetarian":"yes","name":"Cafe ALEX","opening_hours":"Mo-Sa 08:00-01:00; Su 09:00-01:00","smoking":"no","toilets:wheelchair":"yes","website":"https://www.alexgastro.de/","wheelchair":"limited","id":"node/462552298"},"geometry":{"type":"Point","coordinates":[12.0963396,49.0187793]}},{"type":"Feature","id":"node/542560557","properties":{"amenity":"cafe","name":"Fürstenhof","opening_hours":"Mo-Sa 09:00-19:00; Su,PH 10:00-19:00","toilets:wheelchair":"no","wheelchair":"yes","id":"node/542560557"},"geometry":{"type":"Point","coordinates":[12.1003335,49.017187]}},{"type":"Feature","id":"node/542560600","properties":{"amenity":"cafe","name":"Kona Coffee Garden","opening_hours":"Mo-Sa 08:30-19:30; Su 09:30-18:00","wheelchair":"yes","id":"node/542560600"},"geometry":{"type":"Point","coordinates":[12.0972382,49.0172098]}},{"type":"Feature","id":"node/542560639","properties":{"addr:city":"Regensburg","addr:country":"DE","addr:housenumber":"14","addr:postcode":"93047","addr:street":"Gesandtenstraße","amenity":"cafe","name":"Cafebar","wheelchair":"limited","id":"node/542560639"},"geometry":{"type":"Point","coordinates":[12.091929,49.018639]}},{"type":"Feature","id":"node/542560648","properties":{"amenity":"cafe","name":"Altstadt-Engel","wheelchair":"limited","id":"node/542560648"},"geometry":{"type":"Point","coordinates":[12.0920356,49.0186314]}},{"type":"Feature","id":"node/542560763","properties":{"addr:city":"Regensburg","addr:country":"DE","addr:housenumber":"15","addr:postcode":"93047","addr:street":"Untere Bachgasse","amenity":"cafe","name":"Moritz","opening_hours":"Mo-Sa 07:30-01:00, Su 09:00-01:00","phone":"+49 941 5998840","wheelchair":"limited","id":"node/542560763"},"geometry":{"type":"Point","coordinates":[12.0949067,49.018541]}},{"type":"Feature","id":"node/542560767","properties":{"addr:housenumber":"3","addr:street":"Obere Bachgasse","amenity":"cafe","name":"Hemingways","opening_hours":"Su-Th 09:00-01:00, Fr-Sa 09:00-02:00","website":"http://www.hemingway.de/","wheelchair":"no","id":"node/542560767"},"geometry":{"type":"Point","coordinates":[12.0949047,49.0180389]}},{"type":"Feature","id":"node/542560770","properties":{"addr:housenumber":"12-14","addr:street":"Untere Bachgasse","amenity":"cafe","name":"Segafredo Espresso Bar","opening_hours":"Mo-Th 08:00-23:00; Fr-Sa 08:00-01:00, Su 12:00-20:00","phone":"+49 941 5862738","toilets:wheelchair":"no","wheelchair":"limited","id":"node/542560770"},"geometry":{"type":"Point","coordinates":[12.0944435,49.0184126]}},{"type":"Feature","id":"node/542560838","properties":{"addr:city":"Regensburg","addr:country":"DE","addr:housenumber":"3a","addr:postcode":"93047","addr:street":"Alter Kornmarkt","amenity":"cafe","diet:vegetarian":"yes","name":"Caffé Rinaldi","opening_hours":"Tu-Sa 08:00-22:30; Su,PH 09:00-18:00","phone":"+49 941 5993957","wheelchair":"limited","id":"node/542560838"},"geometry":{"type":"Point","coordinates":[12.100232,49.0192748]}},{"type":"Feature","id":"node/542574963","properties":{"addr:city":"Regensburg","addr:country":"DE","addr:housenumber":"5","addr:postcode":"93047","addr:street":"Brückstraße","amenity":"cafe","name":"moccabar","phone":"+49 941 586 5527","wheelchair":"limited","id":"node/542574963"},"geometry":{"type":"Point","coordinates":[12.0967949,49.0206161]}},{"type":"Feature","id":"node/542574990","properties":{"amenity":"cafe","cuisine":"ice_cream","name":"Eis am Dom","wheelchair":"no","id":"node/542574990"},"geometry":{"type":"Point","coordinates":[12.0970084,49.0198916]}},{"type":"Feature","id":"node/779126024","properties":{"addr:housenumber":"6","addr:street":"Hinter der Grieb","amenity":"cafe","name":"Kaminski","opening_hours":"Mo-Th 08:00-01:00, Fr-Sa 08:00-02:00, Su 09:00-01:00","wheelchair":"limited","id":"node/779126024"},"geometry":{"type":"Point","coordinates":[12.0943707,49.0191312]}},{"type":"Feature","id":"node/898012497","properties":{"addr:city":"Regensburg","addr:country":"DE","addr:housenumber":"1a","addr:postcode":"93047","addr:street":"Am Peterstor","amenity":"cafe","email":"info@cafeampeterstor.de","fax":"+49 941 559 19","name":"Cafe am Peterstor","opening_hours":"Mo-Fr 08:00-19:00; Sa 09:00-19:00; Su,PH 10:00-19:00","operator":"Radojka Gratton","phone":"+49 941 559 19","website":"http://www.cafeampeterstor.de","id":"node/898012497"},"geometry":{"type":"Point","coordinates":[12.0980212,49.015239]}},{"type":"Feature","id":"node/1083769594","properties":{"addr:city":"Regensburg","addr:housenumber":"5","addr:postcode":"93047","addr:street":"Haidplatz","amenity":"cafe","diet:vegan":"no","diet:vegetarian":"yes","name":"UrbanCoffee","opening_hours":"Mo-Su 09:00-19:00","outdoor_seating":"yes","phone":"+49 941 38231063","smoking":"no","wheelchair":"no","id":"node/1083769594"},"geometry":{"type":"Point","coordinates":[12.0920284,49.0198005]}},{"type":"Feature","id":"node/1226714960","properties":{"amenity":"cafe","name":"Theatercafé","wheelchair":"yes","id":"node/1226714960"},"geometry":{"type":"Point","coordinates":[12.0894196,49.0191782]}},{"type":"Feature","id":"node/1291326960","properties":{"addr:city":"Regensburg","addr:country":"DE","addr:housenumber":"2","addr:postcode":"93047","addr:street":"D.-Martin-Luther-Straße","amenity":"cafe","email":"info@scholz-regensburg.de","fax":"+49 941 4659443","name":"Pauls Boutique","phone":"+49 941 29075999","website":"http://www.paulsboutique-regensburg.de/","wheelchair":"limited","id":"node/1291326960"},"geometry":{"type":"Point","coordinates":[12.1015228,49.0174143]}},{"type":"Feature","id":"node/1410142025","properties":{"addr:housenumber":"19","addr:street":"Gesandtenstraße","amenity":"cafe","cuisine":"ice_cream","name":"Stenz Eis","wheelchair":"limited","id":"node/1410142025"},"geometry":{"type":"Point","coordinates":[12.0901515,49.0185982]}},{"type":"Feature","id":"node/1447526265","properties":{"amenity":"cafe","name":"Kunst & Kaffee","opening_hours":"Tu-Sa 10:00-17:00","phone":"+49 9402 1036","wheelchair":"no","id":"node/1447526265"},"geometry":{"type":"Point","coordinates":[12.0953695,49.0168044]}},{"type":"Feature","id":"node/1453727405","properties":{"addr:city":"Regensburg","addr:country":"DE","addr:housenumber":"1","addr:postcode":"93047","addr:street":"Spiegelgasse","amenity":"cafe","email":"post@cafesofa.de","name":"Café Sofa","opening_hours":"Oct-Apr: Su,Tu-Th 10:00-24:00, Fr-Sa 10:00-02:00, May-Sep: Mo-Th 18:00+, Fr-Su 10:00+","website":"http://www.cafesofa.de","wheelchair":"no","id":"node/1453727405"},"geometry":{"type":"Point","coordinates":[12.0941442,49.0180552]}},{"type":"Feature","id":"node/1699979241","properties":{"addr:city":"Regensburg","addr:country":"DE","addr:housenumber":"4","addr:postcode":"93047","addr:street":"Dachauplatz","amenity":"cafe","name":"Museums-Café","opening_hours":"Mo-Su 10:00-22:00","phone":"+49 941 5676276","website":"http://www.museumscafe-regensburg.de/index.html","wheelchair":"yes","id":"node/1699979241"},"geometry":{"type":"Point","coordinates":[12.1025326,49.0178642]}},{"type":"Feature","id":"node/1935799539","properties":{"addr:city":"Regensburg","addr:country":"DE","addr:housenumber":"2","addr:postcode":"93047","addr:street":"Rote-Hahnen-Gasse","amenity":"cafe","diet:vegetarian":"yes","name":"Café Lila","opening_hours":"Su-Th 08:00-01:00, Fr,Sa 08:00-02:00","phone":"+49 941 55552","wheelchair":"no","id":"node/1935799539"},"geometry":{"type":"Point","coordinates":[12.0925309,49.0195658]}},{"type":"Feature","id":"node/1939845721","properties":{"addr:city":"Regensburg","addr:country":"DE","addr:housenumber":"3","addr:postcode":"93047","addr:street":"Am Ölberg","amenity":"cafe","cuisine":"sandwich;cake;coffee_shop","internet_access":"wlan","name":"Legato","opening_hours":"Tu,We 11:00-24:00, Th,Fr 11:00-02:00, Sa 10:00-02:00, Su,PH 14:00-19:00","phone":"+49 941 38221649","wheelchair":"no","id":"node/1939845721"},"geometry":{"type":"Point","coordinates":[12.0914372,49.0182784]}},{"type":"Feature","id":"node/2909554084","properties":{"addr:country":"DE","addr:housename":"Kaufhof","addr:housenumber":"8","addr:postcode":"93047","addr:street":"Neupfarrplatz","alt_name":"Italienische Tagesbar Café Eis-Manufaktur","amenity":"cafe","contact:phone":"+49 941 6308383","cuisine":"italian","internet_access":"wlan","name":"Rossi","opening_hours":"Mo-Sa 09:00-22:00, Su 12:00-22:00","website":"http://rossi-regensburg.de/","wheelchair":"yes","id":"node/2909554084"},"geometry":{"type":"Point","coordinates":[12.0970205,49.018059]}},{"type":"Feature","id":"node/3009308562","properties":{"addr:city":"Regensburg","addr:housenumber":"5","addr:postcode":"93047","addr:street":"Am Brixener Hof","amenity":"cafe","check_date:opening_hours":"2019-09-03","diet:gluten_free":"yes","diet:halal":"only","diet:vegan":"only","email":"info@valea-regensburg.de","internet_access":"wlan","internet_access:fee":"customers","name":"Valea - Bio-Café & pflanzliche Lebensmittel","opening_hours":"Mo-Sa 11:00-18:00","organic":"yes","outdoor_seating":"yes","phone":"+49 941 64635541","smoking":"no","website":"http://www.valea-regensburg.de/","wheelchair":"limited","id":"node/3009308562"},"geometry":{"type":"Point","coordinates":[12.0998833,49.0174769]}},{"type":"Feature","id":"node/3249156939","properties":{"addr:housenumber":"6","addr:street":"Rote-Hahnen-Gasse","amenity":"cafe","name":"Diba","phone":"+49 941 5865864","shop":"confectionery","id":"node/3249156939"},"geometry":{"type":"Point","coordinates":[12.0929959,49.0191934]}},{"type":"Feature","id":"node/3266217398","properties":{"addr:city":"Regensburg","addr:country":"DE","addr:housenumber":"1","addr:postcode":"93047","addr:street":"Bismarckplatz","amenity":"cafe","diet:vegetarian":"yes","email":"hallo@anton-cafe.de","internet_access":"wlan","internet_access:fee":"no","name":"anton","opening_hours":"Mo-Su 09:30-23:00; Fr,Sa 09:30-24:00","outdoor_seating":"yes","phone":"+49 941 59999929","toilets":"yes","website":"http://www.anton-cafe.de/","wikidata":"Q18589579","wikipedia":"de:Präsidialpalais","id":"node/3266217398"},"geometry":{"type":"Point","coordinates":[12.0892915,49.0181421]}},{"type":"Feature","id":"node/3268834478","properties":{"addr:city":"Regensburg","addr:housenumber":"9","addr:postcode":"93047","addr:street":"Fröhliche-Türken-Straße","amenity":"cafe","cuisine":"coffee_shop","internet_access":"wlan","name":"Die Couch","opening_hours":"Mo-Su 10:00-02:00","phone":"+49 941 5999961","smoking":"outside","website":"https://www.facebook.com/diecouchbar","wheelchair":"yes","id":"node/3268834478"},"geometry":{"type":"Point","coordinates":[12.0981048,49.0156698]}},{"type":"Feature","id":"node/3268890860","properties":{"addr:city":"Regensburg","addr:country":"DE","addr:housenumber":"20","addr:postcode":"93047","addr:street":"Obere Bachgasse","amenity":"cafe","cuisine":"bagel","diet:vegan":"yes","diet:vegetarian":"yes","name":"Bagelstore Tigergreen","opening_hours":"Mo-Fr 09:00-19:00; Sa 09:00-16:00","operator":"Anna Pascher","website":"http://www.tigergreen.de/","id":"node/3268890860"},"geometry":{"type":"Point","coordinates":[12.0944246,49.0166997]}},{"type":"Feature","id":"node/3414319316","properties":{"addr:city":"Regensburg","addr:housenumber":"8","addr:postcode":"93047","addr:street":"Pfarrergasse","amenity":"cafe","name":"Lola","id":"node/3414319316"},"geometry":{"type":"Point","coordinates":[12.095854,49.0172652]}},{"type":"Feature","id":"node/3703504649","properties":{"addr:housenumber":"1","addr:street":"Simadergasse","amenity":"cafe","breakfast":"yes","name":"Freiraum","opening_hours":"Mo,Su 09:00-18:00; Tu,We 09:00-22:00; Th 09:00-24:00; Fr,Sa 09:00-02:00","outdoor_seating":"yes","phone":"+49 941 5841953","website":"https://www.freiraum-regensburg.de","id":"node/3703504649"},"geometry":{"type":"Point","coordinates":[12.0973583,49.0166135]}},{"type":"Feature","id":"node/3754880863","properties":{"addr:city":"Regensburg","addr:country":"DE","addr:housenumber":"6","addr:postcode":"93047","addr:street":"Am Brixener Hof","amenity":"cafe","name":"190°","opening_hours":"Mo-We 08:30-18:00; Th-Fr 08:30-19:00; Sa 09:00-19:00","phone":"+49 941 59579227","website":"https://www.rehorik.de/gastro/cafe-190-grad/","id":"node/3754880863"},"geometry":{"type":"Point","coordinates":[12.0995812,49.0171376]}},{"type":"Feature","id":"node/3770232325","properties":{"addr:city":"Regensburg","addr:housenumber":"7","addr:postcode":"93047","addr:street":"Fröhliche-Türken-Straße","amenity":"cafe","name":"Babylon Shisha Bar","id":"node/3770232325"},"geometry":{"type":"Point","coordinates":[12.0981283,49.0157267]}},{"type":"Feature","id":"node/3954094704","properties":{"addr:city":"Regensburg","addr:country":"DE","addr:housenumber":"1","addr:postcode":"93047","addr:street":"Weingasse","amenity":"cafe","internet_access":"wlan","internet_access:fee":"no","name":"Kulturcafé","opening_hours":"We,Th 17:00-22:00; Fr 17:00-20:00","wheelchair":"limited","id":"node/3954094704"},"geometry":{"type":"Point","coordinates":[12.0929241,49.020524]}},{"type":"Feature","id":"node/4082463496","properties":{"addr:housenumber":"1","addr:street":"Alter Kornmarkt","amenity":"cafe","name":"La Chapelle","opening_hours":"Mo-Th 09:00-24:00, Fr,Sa 09:00-01:00, Su 10:00-23:00","phone":"+49 941 50275978","website":"www.la-chapelle-regensburg.de","wheelchair":"limited","id":"node/4082463496"},"geometry":{"type":"Point","coordinates":[12.0998874,49.0192342]}},{"type":"Feature","id":"node/4086703187","properties":{"amenity":"cafe","name":"Schifferl","id":"node/4086703187"},"geometry":{"type":"Point","coordinates":[12.0844902,49.0185162]}},{"type":"Feature","id":"node/4116867999","properties":{"addr:city":"Regensburg","addr:housenumber":"5","addr:postcode":"93047","addr:street":"Kohlenmarkt","amenity":"cafe","cuisine":"ice_cream","name":"Gelato e Caffe","phone":"+49 941 / 58437711","website":"http://www.gelatoecaffe.eu/","id":"node/4116867999"},"geometry":{"type":"Point","coordinates":[12.0956735,49.0201666]}},{"type":"Feature","id":"node/7247208355","properties":{"addr:city":"Regensburg","addr:housenumber":"6","addr:postcode":"93047","addr:street":"Pfarrergasse","amenity":"cafe","contact:phone":"+49 941 70905937","contact:website":"https://malefiz-regensburg.de/","cuisine":"sandwich","name":"Malefiz","opening_hours":"Tu-Sa 09:00-02:00, Su 09:00-19:00","reservation":"yes","id":"node/7247208355"},"geometry":{"type":"Point","coordinates":[12.0958661,49.0173711]}},{"type":"Feature","id":"node/6496210749","properties":{"addr:city":"Regensburg","addr:country":"DE","addr:housenumber":"3","addr:postcode":"93047","addr:street":"Drei-Mohren-Straße","amenity":"cafe","diet:vegetarian":"yes","name":"Drei Mohren","opening_hours":"Mo-Sa 9:30-21:00; Su 11:00-17:00","wheelchair":"limited","id":"node/6496210749"},"geometry":{"type":"Point","coordinates":[12.0903407,49.0196115]}},{"type":"Feature","id":"node/5149968790","properties":{"addr:city":"Regensburg","addr:housenumber":"17","addr:postcode":"93047","addr:street":"Wahlenstraße","amenity":"cafe","cuisine":"international;regional;burger;german","delivery":"no","description":"Das Degginger ist Ort, Treffpunkt und Schaufenster für Kreativwirtschaft und Kultur, Kaffee- und Bargenuss. Wir laden Euch ein, zum Ideen schmieden und Arbeiten, zum Zuhören und Austauschen, zum Verweilen und Genießen.","description:de":"Degginger Kaffee- und Barkultur","email":"kreativ@regensburg.de","image":"https://www.regensburg.de/bild/9294/421677/2/1490/660/beb_7100.jpg","internet_access":"yes","internet_access:fee":"no","name":"Das Degginger","opening_hours":"Di-We 11:30-22:00, Th-Sa 11:30-00:00, Mo-Su \"bei Bedarf\"","outdoor_seating":"yes","payment:cash":"yes","payment:credit_cards":"yes","payment:debit_cards":"yes","smoking":"outside","toilets:wheelchair":"yes","website":"https://www.regensburg.de/degginger","wheelchair":"yes","id":"node/5149968790"},"geometry":{"type":"Point","coordinates":[12.0955982,49.0191822]}},{"type":"Feature","id":"node/6174474085","properties":{"amenity":"cafe","brand":"Coffee Fellows","brand:wikidata":"Q23461429","brand:wikipedia":"en:Coffee Fellows","cuisine":"coffee_shop","name":"Coffee Fellows","opening_hours":"Mo-Sa 08:00-23:00","takeaway":"yes","id":"node/6174474085"},"geometry":{"type":"Point","coordinates":[12.0957925,49.018429]}},{"type":"Feature","id":"node/5177788130","properties":{"addr:city":"Regensburg","addr:country":"DE","addr:housenumber":"6","addr:postcode":"93047","addr:street":"Hemauerstraße","amenity":"cafe","name":"Cafe Verschmitzt","opening_hours":"Mo 08:00-19:30, Tu-Fr 08:00-21:00, Sa,Su off","outdoor_seating":"yes","id":"node/5177788130"},"geometry":{"type":"Point","coordinates":[12.1025288,49.0132413]}},{"type":"Feature","id":"node/5109288948","properties":{"amenity":"cafe","name":"Barbarossa","id":"node/5109288948"},"geometry":{"type":"Point","coordinates":[12.1013678,49.0202401]}},{"type":"Feature","id":"node/5153331958","properties":{"amenity":"cafe","cuisine":"cale; sandwich","internet_access":"yes","internet_access:fee":"no","name":"Brunner Bäcker","opening_hours":"Mo-Sa 07:00-20:00","shop":"bakery","survey:date":"2017-10-07","wheelchair":"yes","id":"node/5153331958"},"geometry":{"type":"Point","coordinates":[12.1013782,49.0179896]}},{"type":"Feature","id":"node/6282491054","properties":{"amenity":"cafe","cuisine":"coffee_shop, teahouse","diet:vegan":"yes","diet:vegetarian":"yes","name":"Café Bistro Jolie","opening_hours":"Mo-Su,PH 09:00-22:00","phone":"+49 941 46291309","website":"https://cafe-jolie.de/","wheelchair":"yes","id":"node/6282491054"},"geometry":{"type":"Point","coordinates":[12.103487,49.0200333]}},{"type":"Feature","id":"node/7029525440","properties":{"amenity":"cafe","name":"Orlando di Lasso","opening_hours":"Mo-Sa 08:00-18:00; Su, PH off","website":"https://www.cafe-orlando-regensburg.de/","id":"node/7029525440"},"geometry":{"type":"Point","coordinates":[12.1000418,49.0192307]}},{"type":"Feature","id":"node/7120318797","properties":{"amenity":"cafe","name":"Carakess","shop":"jewelry","website":"https://www.carakess.de/","id":"node/7120318797"},"geometry":{"type":"Point","coordinates":[12.0988281,49.0202417]}}]}