{"type":"FeatureCollection","features":[{"type":"Feature","id":"relation/4451876","properties":{"addr:city":"Regensburg","addr:country":"DE","addr:housenumber":"10","addr:postcode":"93047","addr:street":"Keplerstraße","amenity":"restaurant","building":"yes","cuisine":"german","email":"gaensbauer@gaensbauer.de","fax":"+49 941 565371","name":"Gänsbauer","opening_hours":"Mo-Sa 18:00-01:00","phone":"+49 941 57858","smoking":"no","type":"multipolygon","website":"https://www.gaensbauer.de/","id":"relation/4451876"},"geometry":{"type":"Polygon","coordinates":[[[12.0940342,49.0212876],[12.0942067,49.0212875],[12.0942068,49.0214505],[12.0942083,49.021471],[12.0941723,49.0214727],[12.0938883,49.0214583],[12.0939015,49.0214015],[12.0939212,49.0213111],[12.0940286,49.0213179],[12.0940342,49.0212876]],[[12.0940239,49.0214167],[12.0940256,49.0213832],[12.0940038,49.0213824],[12.094004,49.0213716],[12.0939615,49.0213678],[12.0939516,49.0214115],[12.0940239,49.0214167]]]}},{"type":"Feature","id":"way/37283421","properties":{"addr:city":"Regensburg","addr:country":"DE","addr:housenumber":"3 a","addr:postcode":"93049","addr:street":"Hoppestraße","alt_name":"Rosarium","amenity":"restaurant","breakfast":"yes","building":"commercial","building:levels":"1","cuisine":"international","cuisine:crossover":"yes","email":"info@bistro-rosarium.de","fax":"+49 941 21050","name":"Bistro Rosarium","opening_hours":"Mo-Sa 10:00-01:00, Su 10:00-24:00","operator":"Schweizer Haus Gaststätten Betriebs-GmbH","outdoor_seating":"yes","phone":"+49 941 26885","roof:levels":"1","roof:shape":"gabled","toilets:wheelchair":"no","website":"http://www.bistro-rosarium.de/","wheelchair":"limited","id":"way/37283421"},"geometry":{"type":"Polygon","coordinates":[[[12.0836315,49.015288],[12.0836696,49.0152499],[12.0837091,49.0152102],[12.0838903,49.0152879],[12.0838127,49.0153657],[12.0836315,49.015288]]]}},{"type":"Feature","id":"way/103420356","properties":{"addr:city":"Regensburg","addr:country":"DE","addr:housenumber":"3","addr:postcode":"93047","addr:street":"Arnulfsplatz","amenity":"restaurant","building":"commercial","cuisine":"regional","email":"info@reichinger.info","fax":"+49 941 5999982","internet_access":"no","microbrewery":"yes","name":"Kneitinger","opening_hours":"Mo-Sa 09:00-03:00, Su 09:00-24:00","phone":"+49 941 52455","smoking":"no","toilets:wheelchair":"yes","website":"https://www.knei.de/","wheelchair":"limited","wheelchair:description":"Gaststätte: 1 Stufe, Stüberl und Mittelgang ebenerdig","wikidata":"Q1777013","id":"way/103420356"},"geometry":{"type":"Polygon","coordinates":[[[12.0891802,49.0197363],[12.0888649,49.0197721],[12.0885082,49.0198125],[12.0885054,49.0196598],[12.0891505,49.0196372],[12.0891802,49.0197363]]]}},{"type":"Feature","id":"way/104128216","properties":{"addr:city":"Regensburg","addr:country":"DE","addr:housenumber":"1","addr:postcode":"93047","addr:street":"Holzländestraße","amenity":"restaurant","building":"yes","diet:vegetarian":"yes","name":"Orkan","opening_hours":"Mo-Su 18:00-01:00","phone":"+49 941 54605","smoking":"no","wheelchair":"no","id":"way/104128216"},"geometry":{"type":"Polygon","coordinates":[[[12.0902934,49.0216804],[12.0900531,49.0216884],[12.0900349,49.0215198],[12.0901422,49.0215185],[12.0901504,49.0215908],[12.0902832,49.021584],[12.0902934,49.0216804]]]}},{"type":"Feature","id":"way/104240087","properties":{"addr:city":"Regensburg","addr:country":"DE","addr:housenumber":"14","addr:postcode":"93047","addr:street":"Weißgerbergraben","amenity":"restaurant","building":"yes","cuisine":"german","email":"astrid.siegel@icloud.com","name":"Cafe und Restaurant Siegel","opening_hours":"we-tu 14:00-23:00, Fr-Sa 14:00-01:00, Su 11:30-23:00","phone":"+49 941 5956 7777","smoking":"no","wheelchair":"no","id":"way/104240087"},"geometry":{"type":"Polygon","coordinates":[[[12.0900015,49.0209579],[12.0899971,49.0209071],[12.0899772,49.0208084],[12.0901162,49.0207979],[12.0901439,49.0209394],[12.0900015,49.0209579]]]}},{"type":"Feature","id":"way/93576146","properties":{"addr:city":"Regensburg","addr:country":"DE","addr:housename":"Historische Wurstkuchl","addr:housenumber":"3","addr:postcode":"93047","addr:street":"Thundorferstraße","alt_name":"Historische Wurstküche","amenity":"restaurant","building":"retail","building:levels":"1","cuisine":"german","diet:vegetarian":"yes","email":"info@wurstkuchl.de","fax":"+49 941 4662121","internet_access":"no","name":"Historische Wurstkuchl","name:cs":"Historická klobásová kuchyně","name:en":"Historic Sausage Kitchen","name:ru":"Колбасная кухня","opening_hours":"Mo-Su 08:00-19:00","operator":"Andreas Meier e.K.","phone":"+49 941 466210","roof:levels":"0","smoking":"no","toilets:wheelchair":"no","website":"https://www.wurstkuchl.de/","wheelchair":"yes","wheelchair:description":"Behinderten-WC im Salzstadl nebenan (mit Rampe)","wikidata":"Q1620922","wikipedia":"de:Historische Wurstkuchl","id":"way/93576146"},"geometry":{"type":"Polygon","coordinates":[[[12.0974489,49.0209051],[12.0976453,49.0208818],[12.0976512,49.0209011],[12.0976329,49.0209335],[12.0975127,49.0209478],[12.0974488,49.0209248],[12.0974463,49.0209191],[12.0974489,49.0209051]]]}},{"type":"Feature","id":"way/111137188","properties":{"addr:city":"Regensburg","addr:country":"DE","addr:housenumber":"10","addr:postcode":"93047","addr:street":"Rote-Hahnen-Gasse","amenity":"restaurant","building":"commercial","cuisine":"german","email":"hotel@roter-hahn.com","fax":"+49 941 59509 40","name":"Roter Hahn","operator":"Max Schmidt","phone":"+49 941 59509 0","smoking":"no","tourism":"hotel","website":"https://www.roter-hahn.com/","wheelchair":"limited","id":"way/111137188"},"geometry":{"type":"Polygon","coordinates":[[[12.0931921,49.0188966],[12.0932003,49.0187661],[12.0933485,49.0187661],[12.09335,49.0187224],[12.0935732,49.0187231],[12.093531,49.018857],[12.0934446,49.0189712],[12.0931921,49.0188966]]]}},{"type":"Feature","id":"way/157006612","properties":{"addr:city":"Regensburg","addr:country":"DE","addr:housenumber":"2","addr:postcode":"93047","addr:street":"Am Königshof","amenity":"restaurant","building":"commercial","building:levels":"3","cuisine":"bavarian","diet:vegetarian":"yes","name":"Alte Kuchl am Königshof","opening_hours":"We 17:30-23:00, Th-Sa 17:30-24:00, Su 11:30-14:00","phone":"+49 941 5998530","seats":"30","website":"https://www.altekuchl.de","wheelchair":"no","id":"way/157006612"},"geometry":{"type":"Polygon","coordinates":[[[12.1007738,49.0159549],[12.1007968,49.015953],[12.1007939,49.0159374],[12.100848,49.0159331],[12.1008509,49.0159487],[12.1009216,49.015943],[12.1009468,49.0160781],[12.100799,49.01609],[12.1007738,49.0159549]]]}},{"type":"Feature","id":"way/113828091","properties":{"addr:city":"Regensburg","addr:country":"DE","addr:housenumber":"4","addr:postcode":"93047","addr:street":"Kalmünzergasse","amenity":"restaurant","building":"commercial","building:levels":"3","diet:vegetarian":"yes","name":"Gasthaus Quetschn","opening_hours":"Mo-Fr 11:30-22:30; Su,PH 11:00-15:00; Sa 17:00-22:30+","phone":"+49 941 5676146","roof:levels":"1","toilets:wheelchair":"no","website":"http://www.quetschn.com/","wheelchair":"limited","id":"way/113828091"},"geometry":{"type":"Polygon","coordinates":[[[12.1019695,49.0191675],[12.1019649,49.0191326],[12.1019138,49.0191354],[12.1019181,49.0191684],[12.1018688,49.0191712],[12.101853,49.0190503],[12.1020766,49.0190378],[12.1020926,49.0191606],[12.1019695,49.0191675]]]}},{"type":"Feature","id":"node/281119088","properties":{"addr:city":"Regensburg","addr:country":"DE","addr:housenumber":"6","addr:postcode":"93047","addr:street":"Arnulfsplatz","amenity":"restaurant","cuisine":"italian","diet:gluten_free":"yes","diet:vegan":"yes","diet:vegetarian":"yes","name":"Paradiso da Carlo","opening_hours":"Mo off;Tu-Su 11:30-01:00","phone":"+4994170812115","toilets:wheelchair":"no","wheelchair":"limited","id":"node/281119088"},"geometry":{"type":"Point","coordinates":[12.0891869,49.0200579]}},{"type":"Feature","id":"node/281249121","properties":{"addr:city":"Regensburg","addr:country":"DE","addr:housenumber":"4","addr:postcode":"93047","addr:street":"Schottenstraße","amenity":"restaurant","fax":"+49 941 567404 9","name":"Jalapenos","opening_hours":"17:00-1:00","phone":"+49 941 567404 0","website":"http://www.jalapenos-regensburg.de/","wheelchair":"no","id":"node/281249121"},"geometry":{"type":"Point","coordinates":[12.0889344,49.0174293]}},{"type":"Feature","id":"node/281249707","properties":{"addr:city":"Regensburg","addr:country":"DE","addr:housenumber":"4","addr:postcode":"93047","addr:street":"Schottenstraße","amenity":"restaurant","name":"Billard Club","opening_hours":"Mo-Fr 14:00-23:00, Sa 14:00-01:00, PH 23:00-01:00 off","phone":"+49 941 53563","sport":"billiards","website":"http://www.billardclub-regensburg.de/","wheelchair":"no","id":"node/281249707"},"geometry":{"type":"Point","coordinates":[12.0889389,49.0175982]}},{"type":"Feature","id":"node/283217302","properties":{"addr:city":"Regensburg","addr:country":"DE","addr:housenumber":"7","addr:postcode":"93047","addr:street":"Domplatz","amenity":"restaurant","fax":"+49 941 599929 9","name":"Heuport","opening_hours":"Mo-Fr 16:00+; Sa,Su 09:00+","phone":"+49 941 599929 7","toilets:wheelchair":"yes","website":"https://www.heuport.de/","wheelchair":"limited","id":"node/283217302"},"geometry":{"type":"Point","coordinates":[12.096852,49.019462]}},{"type":"Feature","id":"node/384727068","properties":{"addr:city":"Regensburg","addr:country":"DE","addr:housenumber":"12","addr:postcode":"93047","addr:street":"Am Römling","amenity":"restaurant","cuisine":"italian","diet:vegetarian":"yes","email":"info@spaghetteria-regensburg.de","fax":"+49 (941) 63087487","name":"Spaghetteria Aquino","opening_hours":"12:00-15:00; 18:00-01:00","operator":"Aquino GmbH","phone":"+49 941 563695","website":"https://spaghetteria-regensburg.de/","wheelchair":"no","id":"node/384727068"},"geometry":{"type":"Point","coordinates":[12.0916697,49.0200369]}},{"type":"Feature","id":"node/393094613","properties":{"addr:city":"Regensburg","addr:country":"DE","addr:housenumber":"4","addr:postcode":"93047","addr:street":"Haidplatz","amenity":"restaurant","cuisine":"italian","diet:vegetarian":"yes","email":"info@datino-online.de","name":"Da Tino","opening_hours":"Mo-Su 11:00-23:00","phone":"+49 941 561335","website":"http://datino-regensburg.de/","wheelchair":"no","id":"node/393094613"},"geometry":{"type":"Point","coordinates":[12.0928219,49.0195782]}},{"type":"Feature","id":"node/393094614","properties":{"addr:city":"Regensburg","addr:country":"DE","addr:housenumber":"1","addr:postcode":"93047","addr:street":"Watmarkt","amenity":"restaurant","brand":"L'Osteria","brand:wikidata":"Q17323478","brand:wikipedia":"de:L’Osteria","cuisine":"italian","diet:vegetarian":"yes","email":"regensburg@losteria.de","fax":"+49 941 5999192","name":"L'Osteria","opening_hours":"Mo-Sa 11:00-24:00; Su,PH 12:00-24:00","operator":"FR L'Osteria GmbH, Nürnberg","phone":"+49 941 5999181","smoking":"no","toilets:wheelchair":"no","website":"http://www.losteria.info","wheelchair":"limited","id":"node/393094614"},"geometry":{"type":"Point","coordinates":[12.0960876,49.0202337]}},{"type":"Feature","id":"node/410417078","properties":{"addr:housenumber":"3-5","addr:street":"Gesandtenstraße","amenity":"restaurant","name":"Lorenzini","opening_hours":"Tu-Th 11:00-14:00,17:00-24:00, Fr 11:00-14:00,17:00-02:00, Sa 11:00-02:00, Su 11:00-14:00,17:00-23:00","phone":"+49 941 69896617","wheelchair":"limited","id":"node/410417078"},"geometry":{"type":"Point","coordinates":[12.0937802,49.0183253]}},{"type":"Feature","id":"node/410417199","properties":{"addr:housenumber":"7a","addr:postcode":"93047","addr:street":"Haidplatz","amenity":"restaurant","cuisine":"mexican","diet:vegetarian":"yes","email":"info@peppers-regensburg.de","name":"Peppers","opening_hours":"Mo-Su 11:00-00:00","operator":"Speedy Gonzales GmbH","phone":"+49 941 5865555","website":"https://www.peppers-regensburg.de/","wheelchair":"no","id":"node/410417199"},"geometry":{"type":"Point","coordinates":[12.0928597,49.0199725]}},{"type":"Feature","id":"node/410417650","properties":{"addr:city":"Regensburg","addr:country":"DE","addr:housenumber":"8","addr:postcode":"93047","addr:street":"Untere Bachgasse","amenity":"restaurant","cuisine":"french","email":"restaurant@hotel-orphee.de","fax":"+4994159602199","name":"Orphée","operator":"Namenlos GmbH","phone":"+49 941 52977","smoking":"no","toilets:wheelchair":"yes","website":"http://www.hotel-orphee.de/","wheelchair":"yes","id":"node/410417650"},"geometry":{"type":"Point","coordinates":[12.0948019,49.0193413]}},{"type":"Feature","id":"node/452501025","properties":{"addr:city":"Regensburg","addr:country":"DE","addr:housenumber":"25","addr:postcode":"93047","addr:street":"Kreuzgasse","amenity":"restaurant","cuisine":"bavarian","fax":"+49 941 50275993","name":"Kreuzschänke","opening_hours":"Mo off; Tu-Fr 17:00-23:00; Sa,Su,Ph 11:00-23:00","phone":"+49 941 54200","tenant":"Walter Buric","website":"https://www.biergarten-kreuzschaenke.de/","wheelchair":"no","id":"node/452501025"},"geometry":{"type":"Point","coordinates":[12.0859315,49.0197492]}},{"type":"Feature","id":"node/460414781","properties":{"addr:city":"Regensburg","addr:country":"DE","addr:housenumber":"1","addr:postcode":"93047","addr:street":"Engelburgergasse","amenity":"restaurant","cuisine":"indian","name":"Indian Palace","phone":"+49 941 5999958","toilets:wheelchair":"no","wheelchair":"limited","id":"node/460414781"},"geometry":{"type":"Point","coordinates":[12.0913133,49.0214613]}},{"type":"Feature","id":"node/460414783","properties":{"addr:city":"Regensburg","addr:country":"DE","addr:housenumber":"2","addr:postcode":"93047","addr:street":"Metgebergasse","amenity":"restaurant","cuisine":"turkish","diet:vegetarian":"yes","email":"kontakt@restaurant-mesopotamia.de","fax":"+49 941 46185587","name":"Mesopotamia","opening_hours":"Tu-Su 17:00+; Mo off","phone":"+49 941 56993306","website":"http://www.restaurant-mesopotamia.de","wheelchair":"no","id":"node/460414783"},"geometry":{"type":"Point","coordinates":[12.0917059,49.0214205]}},{"type":"Feature","id":"node/460414793","properties":{"addr:city":"Regensburg","addr:country":"DE","addr:housenumber":"17","addr:postcode":"93047","addr:street":"Ostengasse","amenity":"restaurant","cuisine":"indian","diet:vegan":"yes","diet:vegetarian":"yes","name":"Taj Mahal","opening_hours":"Mo-Su,PH 11:30-14:00,17:30-24:00","phone":"+49 941 561727","toilets:wheelchair":"no","website":"https://tajmahal-regensburg.de","wheelchair":"limited","wheelchair:description":"1 Stufe im Innenraum","id":"node/460414793"},"geometry":{"type":"Point","coordinates":[12.1046768,49.0189746]}},{"type":"Feature","id":"node/480828235","properties":{"addr:city":"Regensburg","addr:country":"DE","addr:housenumber":"8","addr:postcode":"93047","addr:street":"Hinter der Grieb","amenity":"restaurant","cuisine":"italian","email":"salve@e-amici.de","name":"Amore, Vino & Amici","opening_hours":"Tu-Fr 11:30-22:00; Sa, Su 12:00-22:00","operator":"Davide D'Antoni e Andrea Cardone","outdoor_seating":"yes","phone":"+49 941 93081525","smoking":"no","toilets:wheelchair":"no","website":"https://e-amici.de/","wheelchair":"limited","wheelchair:description":"Stufe am Eingang, aber die Bestuhlung im Außenbereich ist rollstuhlgerecht!","id":"node/480828235"},"geometry":{"type":"Point","coordinates":[12.0940248,49.0191367]}},{"type":"Feature","id":"node/528886448","properties":{"amenity":"restaurant","beer_brand":"Thurn und Taxis","cuisine":"spanish","diet:vegetarian":"yes","name":"Casa Rios","opening_hours":"Mo,We-Su 18:00-01:00","phone":"+499415999598","website":"http://www.casa-rios.de","wheelchair":"limited","id":"node/528886448"},"geometry":{"type":"Point","coordinates":[12.0890088,49.0205573]}},{"type":"Feature","id":"node/528886450","properties":{"addr:city":"Regensburg","addr:country":"DE","addr:housenumber":"6","addr:postcode":"93047","addr:street":"Krebsgasse","amenity":"restaurant","beer_brand":"Kuchelbauer Weissbier","beer_garden":"yes","cuisine":"regional","name":"Dicker Mann","opening_hours":"Mo-Su 09:30-01:00","phone":"+49 941 57370","website":"http://www.dicker-mann.de","wheelchair":"limited","id":"node/528886450"},"geometry":{"type":"Point","coordinates":[12.0922123,49.0193042]}},{"type":"Feature","id":"node/542560661","properties":{"amenity":"restaurant","cuisine":"spanish","delivery":"no","name":"Tapas","opening_hours":"Mo-Su 18:00-01:00","outdoor_seating":"yes","smoking":"outside","website":"http://www.tapasamoelberg.de/","wheelchair":"limited","id":"node/542560661"},"geometry":{"type":"Point","coordinates":[12.0912869,49.0170099]}},{"type":"Feature","id":"node/542560678","properties":{"addr:city":"Regensburg","addr:country":"DE","addr:housenumber":"6-8","addr:postcode":"93047","addr:street":"Waffnergasse","alt_name":"Fürstliches Brauhaus","amenity":"restaurant","cuisine":"bavarian","diet:vegetarian":"yes","email":"info@brauhaus-am-schloss.com","fax":"+49 941 280433 22","name":"Brauhaus am Schloss","note":"Pächterwechsel Mitte November 2015, vormals \"Fürstliches Brauhaus\"","opening_hours":"Mo-Fr 11:00-24:00; Sa,Su 10:00-24:00","outdoor_seating":"yes","phone":"+49 941 280433 0","smoking":"outside","toilets:wheelchair":"yes","website":"https://brauhaus-am-schloss.com/","wheelchair":"limited","id":"node/542560678"},"geometry":{"type":"Point","coordinates":[12.0912632,49.0152783]}},{"type":"Feature","id":"node/542560733","properties":{"addr:city":"Regensburg","addr:housenumber":"18","addr:postcode":"93047","addr:street":"Engelburgergasse","amenity":"restaurant","cuisine":"sushi","name":"Dragonbirds","opening_hours":"Tu-Sa 11:30-14:30,17:30-23:00; Su,PH 16:00-23:00","phone":"+49 941 59981688","website":"http://www.dragonbirds.de/","id":"node/542560733"},"geometry":{"type":"Point","coordinates":[12.0907326,49.0205967]}},{"type":"Feature","id":"node/542560773","properties":{"addr:city":"Regensburg","addr:country":"DE","addr:housenumber":"5","addr:postcode":"93047","addr:street":"Haidplatz","amenity":"restaurant","cuisine":"pizza","diet:vegan":"no","diet:vegetarian":"yes","name":"Pam Pam","opening_hours":"Mo-Su 11:00-00:00","phone":"+49 941 561371","toilets:wheelchair":"no","wheelchair":"no","id":"node/542560773"},"geometry":{"type":"Point","coordinates":[12.091871,49.0197987]}},{"type":"Feature","id":"node/542560809","properties":{"addr:city":"Regensburg","addr:country":"DE","addr:housenumber":"1a","addr:postcode":"93047","addr:street":"Vor der Grieb","amenity":"restaurant","cuisine":"spanish","diet:vegetarian":"yes","email":"office@namenlos-gmbh.de","name":"Bodega vinos y tapas","opening_hours":"Tu 18:00-24:00; We-Fr 00:00-01:00,18:00-24:00; Sa,Su 00:00-02:00,18:00-24:00","operator":"Namenlos GmbH","phone":"+49 941 5840486","smoking":"no","website":"http://www.bodega-regensburg.de/","wheelchair":"limited","id":"node/542560809"},"geometry":{"type":"Point","coordinates":[12.0944328,49.0193631]}},{"type":"Feature","id":"node/542574986","properties":{"addr:city":"Regensburg","addr:country":"DE","addr:housenumber":"5","addr:postcode":"93047","addr:street":"Watmarkt","amenity":"restaurant","cuisine":"international","name":"Storstad","opening_hours":"Tu-Sa 18:00-24:00; Su,Mo off","phone":"+49 941 59993000","takeaway":"no","website":"http://www.storstad.de","wheelchair":"limited","id":"node/542574986"},"geometry":{"type":"Point","coordinates":[12.0966447,49.0200936]}},{"type":"Feature","id":"node/542575025","properties":{"amenity":"restaurant","breakfast":"yes","description":"Restaurant, Café, Bar, Wohnzimmer","name":"Filmbühne","opening_hours":"09:00-02:00","opening_hours:kitchen":"9:00-22:00","phone":"+49 0941 57037","website":"http://www.neue-filmbühne.com","wheelchair":"no","id":"node/542575025"},"geometry":{"type":"Point","coordinates":[12.0898952,49.0184091]}},{"type":"Feature","id":"node/542575061","properties":{"addr:city":"Regensburg","addr:country":"DE","addr:housenumber":"3","addr:postcode":"93047","addr:street":"Blaue-Lilien-Gasse","amenity":"restaurant","brand":"dean&david","brand:wikidata":"Q66132404","cuisine":"salad;sandwich","diet:vegetarian":"yes","name":"dean&david","opening_hours":"Jun-Aug: Mo-Fr 10:00-22:00; Jun-Aug: Sa 10:00-22:00; Jun-Aug: Su 11:00-20:00;Sep-May: Mo-Sa 10:00-21:00; Sep-May: Su 11:00-18:00","phone":"+49 941 54490","wheelchair":"limited","id":"node/542575061"},"geometry":{"type":"Point","coordinates":[12.0959131,49.0204015]}},{"type":"Feature","id":"node/564919632","properties":{"addr:city":"Regensburg","addr:country":"DE","addr:housenumber":"6","addr:postcode":"93047","addr:street":"Schwarze-Bären-Straße","amenity":"restaurant","cuisine":"bavarian","fax":"+49 941 5997704","microbrewery":"yes","name":"Regensburger Weissbräuhaus","opening_hours":"Mo-Su,PH 10:00-01:00","phone":"+49 941 5997703","smoking":"no","toilets:wheelchair":"no","website":"https://www.regensburger-weissbrauhaus.de/index.php/de/","wheelchair":"limited","wheelchair:description":"nur EG und auch das nur teilweise, kein Behinderten-WC","id":"node/564919632"},"geometry":{"type":"Point","coordinates":[12.0986446,49.017846]}},{"type":"Feature","id":"node/565666474","properties":{"addr:city":"Regensburg","addr:country":"DE","addr:housenumber":"7","addr:postcode":"93047","addr:street":"Fischmarkt","amenity":"restaurant","cuisine":"german","name":"Alte Münz","opening_hours":"Tu-Su 11:00-24:00","phone":"+49094154886","website":"http://www.alte-muenz.de/","wheelchair":"no","id":"node/565666474"},"geometry":{"type":"Point","coordinates":[12.0951457,49.0209363]}},{"type":"Feature","id":"node/583802323","properties":{"amenity":"restaurant","cuisine":"regional","name":"Kantine der Regierung der Oberpfalz","smoking":"no","wheelchair":"limited","id":"node/583802323"},"geometry":{"type":"Point","coordinates":[12.091062,49.0164989]}},{"type":"Feature","id":"node/627431267","properties":{"addr:city":"Regensburg","addr:country":"DE","addr:housenumber":"10-12","addr:postcode":"93047","addr:street":"Kramgasse","amenity":"restaurant","name":"Pazzo D.","phone":"+49 1715440088","wheelchair":"limited","id":"node/627431267"},"geometry":{"type":"Point","coordinates":[12.0968707,49.0195414]}},{"type":"Feature","id":"node/656166185","properties":{"addr:housenumber":"14","addr:street":"Keplerstraße","amenity":"restaurant","cuisine":"mediterranean","name":"Papageno","opening_hours":"Mo-Su 17:30-00:00","phone":"+49 941 6308165","toilets:wheelchair":"no","website":"http://www.papageno-regensburg.de","wheelchair":"limited","wheelchair:description":"Seiteneingang barrierefrei, keine Behindertentoilette","id":"node/656166185"},"geometry":{"type":"Point","coordinates":[12.0931952,49.0213847]}},{"type":"Feature","id":"node/659669796","properties":{"addr:city":"Regensburg","addr:country":"DE","addr:housenumber":"10","addr:postcode":"93047","addr:street":"Spiegelgasse","amenity":"restaurant","brewery":"Augustiner Bräu München","contact:email":"info@goldenes-fass-regensburg.de","contact:fax":"+49 160 96233712","contact:phone":"+49 941 59939888","contact:website":"www.goldenes-fass-regensburg.de","cuisine":"bavarian","name":"Zum Goldenen Fass","opening_hours":"Tu-Su,PH 11:00-24:00","phone":"+49 941 59939888","toilets:wheelchair":"yes","url":"www.goldenes-fass-regensburg.de","website":"http://www.goldenes-fass-regensburg.de","wheelchair":"yes","id":"node/659669796"},"geometry":{"type":"Point","coordinates":[12.0940107,49.0174786]}},{"type":"Feature","id":"node/667699705","properties":{"amenity":"restaurant","name":"Dampfnudel Uli","opening_hours":"We-Fr 10:01-17:01; Sa 10:01-15:01","survey:date":"2017-10-06","wheelchair":"no","id":"node/667699705"},"geometry":{"type":"Point","coordinates":[12.0959794,49.0200065]}},{"type":"Feature","id":"node/935332225","properties":{"addr:city":"Regensburg","addr:country":"DE","addr:housenumber":"15","addr:postcode":"93047","addr:street":"Neupfarrplatz","amenity":"restaurant","brewery":"Hacker-Pschorr","cuisine":"bavarian","description":"Akzeptieren keine Junggesell*innenabschiede","email":"info@hacker-pschorr-regensburg.de","fax":"+49 941 58404 66","name":"Hacker-Pschorr Wirtshaus im alten Augustiner Kloster","opening_hours":"Mo-Su 10:30-23:00","phone":"+49 941 58404 55","toilets:wheelchair":"yes","website":"http://www.hacker-pschorr-regensburg.de/","wheelchair":"yes","id":"node/935332225"},"geometry":{"type":"Point","coordinates":[12.0955177,49.0181968]}},{"type":"Feature","id":"node/954212009","properties":{"addr:city":"Regensburg","addr:housenumber":"10","addr:postcode":"93047","addr:street":"Hinter der Grieb","amenity":"restaurant","email":"info@gravenreuther.de","name":"Gravenreuther","opening_hours":"Tu-Su 10:00-23:00","phone":"+49 941 55050","url":"http://www.gravenreuther.de/","wheelchair":"no","id":"node/954212009"},"geometry":{"type":"Point","coordinates":[12.0937092,49.0191093]}},{"type":"Feature","id":"node/986043895","properties":{"amenity":"restaurant","cuisine":"japanese","diet:vegetarian":"yes","fax":"+49 941 5865877","name":"Kyoto","opening_hours":"Mo-Su 11:00-15:00,17:00-23:00","phone":"+49 941 5865877","website":"https://www.kyoto-running-sushi.de/","wheelchair":"no","id":"node/986043895"},"geometry":{"type":"Point","coordinates":[12.0901641,49.0197215]}},{"type":"Feature","id":"node/986043898","properties":{"amenity":"restaurant","diet:vegetarian":"yes","name":"Coming Home","opening_hours":"Tu-Fr 17:00-24:00, Sa 12:00-24:00, Su 12:00-17:00","wheelchair":"no","id":"node/986043898"},"geometry":{"type":"Point","coordinates":[12.0903545,49.0198252]}},{"type":"Feature","id":"node/986043899","properties":{"addr:city":"Regensburg","addr:housenumber":"5","addr:postcode":"93047","addr:street":"Drei-Mohren-Straße","amenity":"restaurant","cuisine":"italian","diet:vegetarian":"yes","name":"Ristorante Tiziano","opening_hours":"Mo-Sa 11:00-23:00","phone":"+49 941 563980","toilets:wheelchair":"no","website":"https://www.tiziano-regensburg.de/","wheelchair":"limited","wheelchair:description":"Schwelle am Eingang, keine Behindertentoilette","id":"node/986043899"},"geometry":{"type":"Point","coordinates":[12.0906175,49.0196828]}},{"type":"Feature","id":"node/1195182884","properties":{"addr:city":"Regensburg","addr:housenumber":"1","addr:postcode":"93047","addr:street":"Drei-Mohren-Straße","amenity":"restaurant","cuisine":"burger","diet:vegetarian":"no","name":"The Burger House","opening_hours":"Mo-Fr 11:30-15:30; Mo-Th 17:00-22:30, Fr 17:00-23:00, Sa 12:00-23:00, Su 12:00-21:00","wheelchair":"no","id":"node/1195182884"},"geometry":{"type":"Point","coordinates":[12.0904018,49.0197063]}},{"type":"Feature","id":"node/1266354921","properties":{"addr:city":"Regensburg","addr:country":"DE","addr:housenumber":"1","addr:postcode":"93047","addr:street":"Waaggäßchen","amenity":"restaurant","contact:email":"info@hofbraeuhaus-regensburg.de","contact:fax":"+49 941 2805036","contact:phone":"+49 941 51280","contact:website":"http://www.hofbraeuhaus-regensburg.de","cuisine":"regional","diet:vegan":"no","diet:vegetarian":"yes","name":"Hofbräuhaus","opening_hours":"Mo-Su 09:00-01:00","operator":"Schafbauer GbR","smoking":"no","toilets:wheelchair":"yes","wheelchair":"limited","id":"node/1266354921"},"geometry":{"type":"Point","coordinates":[12.0944549,49.0199783]}},{"type":"Feature","id":"node/1266922547","properties":{"amenity":"restaurant","cuisine":"pizza","email":"pizzeriadaluigi@yahoo.de","name":"Da Luigi","phone":"+49 941 5999325","website":"http://daluigi-regensburg.de/","wheelchair":"limited","id":"node/1266922547"},"geometry":{"type":"Point","coordinates":[12.0922961,49.0194458]}},{"type":"Feature","id":"node/1281091303","properties":{"addr:city":"Regensburg","addr:country":"DE","addr:housenumber":"3","addr:postcode":"93047","addr:street":"Krauterermarkt","amenity":"restaurant","email":"info@hotel-bischofshof.de","fax":"+49 941 594101 171","name":"Bischofshof","operator":"Bischofshof am Dom GmbH","phone":"+49 941 5941010","toilets:wheelchair":"yes","website":"http://www.hotel-bischofshof.de/","wheelchair":"yes","id":"node/1281091303"},"geometry":{"type":"Point","coordinates":[12.0974682,49.0201713]}},{"type":"Feature","id":"node/1291325827","properties":{"addr:city":"Regensburg","addr:country":"DE","addr:housenumber":"14","addr:postcode":"93047","addr:street":"D.-Martin-Luther-Straße","amenity":"restaurant","cuisine":"tapas;spanish","name":"Bar Ravel","operator":"Amici GmbH","phone":"+49 941 59002","toilets:wheelchair":"yes","website":"https://www.bar-ravel.de/","wheelchair":"yes","id":"node/1291325827"},"geometry":{"type":"Point","coordinates":[12.1012946,49.0150728]}},{"type":"Feature","id":"node/1291326959","properties":{"addr:city":"Regensburg","addr:country":"DE","addr:housenumber":"2","addr:postcode":"93047","addr:street":"D.-Martin-Luther-Straße","amenity":"restaurant","contact:email":"info@scholz-regensburg.de","contact:fax":"+49 941 4659443","contact:phone":"+49 941 4659441","contact:website":"http://www.scholz-regensburg.de/","name":"Scholz","opening_hours":"Mo-Sa 09:00+; Su 10:00+","toilets:wheelchair":"no","wheelchair":"limited","wheelchair:description":"keine Behindertentoilette, deshalb nicht vollständig barrierefrei nutzbar","id":"node/1291326959"},"geometry":{"type":"Point","coordinates":[12.101392,49.0166791]}},{"type":"Feature","id":"node/1299488453","properties":{"amenity":"restaurant","contact:email":"info@weltenburger-am-dom.de","contact:phone":"+49 941 5861460","contact:website":"https://www.weltenburger-am-dom.de","cuisine":"bavarian","diet:vegetarian":"yes","name":"Weltenburger am Dom","opening_hours":"Mo-Su,PH 11:00-23:00","opening_hours:kitchen":"11:00-22:00","outdoor_seating":"yes","wheelchair":"limited","id":"node/1299488453"},"geometry":{"type":"Point","coordinates":[12.0994998,49.0188039]}},{"type":"Feature","id":"node/1390976544","properties":{"addr:city":"Regensburg","addr:country":"DE","addr:housenumber":"14","addr:postcode":"93047","addr:street":"Gabelsbergerstraße","amenity":"restaurant","cuisine":"greek","name":"Sakis Mezes","opening_hours":"Tu-Sa 17:30-22:30","outdoor_seating":"yes","phone":"+49 941 20914096","website":"https://www.facebook.com/SakisMezes/","wheelchair":"limited","id":"node/1390976544"},"geometry":{"type":"Point","coordinates":[12.1066801,49.0157629]}},{"type":"Feature","id":"node/1411365260","properties":{"addr:city":"Regensburg","addr:country":"DE","addr:housenumber":"1","addr:postcode":"93047","addr:street":"Deischgasse","alt_name":"Federico Secondo","amenity":"restaurant","cuisine":"italian","email":"mailto@osteria-federico2.de","name":"Federico II","opening_hours":"Mo-Su 12:00-14:00,17:30-22:30","phone":"+49 941 565588","website":"https://osteria-federico2.de/","wheelchair":"yes","id":"node/1411365260"},"geometry":{"type":"Point","coordinates":[12.0934575,49.0176858]}},{"type":"Feature","id":"node/1430487672","properties":{"addr:city":"Regensburg","addr:country":"DE","addr:housenumber":"1","addr:postcode":"93047","addr:street":"Fischgässel","amenity":"restaurant","cuisine":"italian","email":"info@luna-rossa-regensburg.de","name":"La Luna Rossa","opening_hours":"Mo-Sa 17:30+","operator":"Corina Paula Benchea","phone":"+49 941 599 79 33","website":"http://www.luna-rossa-regensburg.de","wheelchair":"no","id":"node/1430487672"},"geometry":{"type":"Point","coordinates":[12.0954482,49.0208785]}},{"type":"Feature","id":"node/1446104955","properties":{"addr:city":"Regensburg","addr:country":"DE","addr:housenumber":"9","addr:postcode":"93047","addr:street":"Bertoldstraße","amenity":"restaurant","description":"slow food","email":"info@leerer-beutel.de","fax":"+49 941 565734","level":"0","lunch":"yes","name":"Leerer Beutel","opening_hours":"Mo 18:00-01:00, Tu-Sa 11:00-01:00","opening_hours:kitchen":"11:30-14:00,18:00-22:00","outdoor_seating":"yes","phone":"+49 941 58997","toilets:wheelchair":"yes","website":"https://www.leerer-beutel.de/Restaurant","wheelchair":"yes","id":"node/1446104955"},"geometry":{"type":"Point","coordinates":[12.1033783,49.0183265]}},{"type":"Feature","id":"node/1711903044","properties":{"addr:city":"Regensburg","addr:country":"DE","addr:housenumber":"3","addr:postcode":"93047","addr:street":"Schwanenplatz","amenity":"restaurant","cuisine":"greek","name":"Goldener Ochs","opening_hours":"Tu-Su 11:00-14:00; Tu-Su 17:00-23:00; PH unknown","phone":"+49 941 560518","wheelchair":"no","id":"node/1711903044"},"geometry":{"type":"Point","coordinates":[12.10213,49.0185873]}},{"type":"Feature","id":"node/1742887051","properties":{"addr:city":"Regensburg","addr:country":"DE","addr:housenumber":"4","addr:street":"Drei-Kronen-Gasse","amenity":"restaurant","cuisine":"thai","name":"Rambutan","opening_hours":"Mo-Sa 11:00-22:00; Su,PH 11:00-22:00","phone":"+49 941 58612310","toilets:wheelchair":"no","wheelchair":"yes","id":"node/1742887051"},"geometry":{"type":"Point","coordinates":[12.1007798,49.0177905]}},{"type":"Feature","id":"node/1806152936","properties":{"addr:city":"Regensburg","addr:country":"DE","addr:housenumber":"3","addr:postcode":"93047","addr:street":"Haidplatz","amenity":"restaurant","cuisine":"thai","diet:vegetarian":"yes","name":"theThai","opening_hours":"11:00-24:00","phone":"+49 941 9467565","website":"http://www.thethai.de/","wheelchair":"limited","id":"node/1806152936"},"geometry":{"type":"Point","coordinates":[12.093016,49.019364]}},{"type":"Feature","id":"node/1807142632","properties":{"addr:city":"Regensburg","addr:country":"DE","addr:housenumber":"3-5","addr:postcode":"93047","addr:street":"Gesandtenstraße","amenity":"restaurant","cuisine":"international","diet:vegetarian":"yes","email":"regensburg@mischbar.net","name":"Mischbar","opening_hours":"Mo-Sa 10:00-21:00; Su,PH 11:00-20:00","phone":"+49 941 290 309 10","website":"http://www.mischbar-regensburg.com","wheelchair":"limited","id":"node/1807142632"},"geometry":{"type":"Point","coordinates":[12.093333,49.01843]}},{"type":"Feature","id":"node/1985923692","properties":{"addr:city":"Regensburg","addr:housenumber":"2","addr:postcode":"93047","addr:street":"Roter-Lilien-Winkel","amenity":"restaurant","name":"visAvis","phone":"+49 941 5998989","id":"node/1985923692"},"geometry":{"type":"Point","coordinates":[12.0918883,49.0162396]}},{"type":"Feature","id":"node/2105029846","properties":{"amenity":"restaurant","cuisine":"italian","name":"Pasta Rustica","opening_hours":"Mo-Fr 12:00-18:00, Sa 12:00-14:30","wheelchair":"limited","id":"node/2105029846"},"geometry":{"type":"Point","coordinates":[12.0914048,49.01815]}},{"type":"Feature","id":"node/2300149924","properties":{"addr:housenumber":"17","addr:postcode":"93047","addr:street":"Am Ölberg","amenity":"restaurant","email":"dahoam-rgbg@gmx.de","name":"Dahoam bei Kerstin & Mama","phone":"+49 941 598 788 40","website":"https://de-de.facebook.com/Dahoam-223818764762969","id":"node/2300149924"},"geometry":{"type":"Point","coordinates":[12.0913059,49.0167942]}},{"type":"Feature","id":"node/2505197895","properties":{"addr:city":"Regensburg","addr:housenumber":"2","addr:postcode":"93047","addr:street":"Viereimergasse","amenity":"restaurant","cuisine":"vietnamese","name":"rice hat","wheelchair":"yes","id":"node/2505197895"},"geometry":{"type":"Point","coordinates":[12.0977352,49.0169327]}},{"type":"Feature","id":"node/2577118683","properties":{"addr:city":"Regensburg","addr:country":"DE","addr:housenumber":"13","addr:postcode":"93047","addr:street":"Obermünsterstraße","amenity":"restaurant","cuisine":"asian","diet:vegan":"yes","diet:vegetarian":"yes","name":"RiceCorn","opening_hours":"Mo-Sa 11:00-21:00; Su,PH off","phone":"+49 941 89976935","website":"https://ricecorn-ehemallige-kuk.business.site/","id":"node/2577118683"},"geometry":{"type":"Point","coordinates":[12.0968688,49.0164592]}},{"type":"Feature","id":"node/2769174736","properties":{"amenity":"restaurant","cuisine":"mexican","name":"El Sombrero","opening_hours":"Mo-Sa 17:00-23:00","wheelchair":"limited","id":"node/2769174736"},"geometry":{"type":"Point","coordinates":[12.095219,49.0206479]}},{"type":"Feature","id":"node/2896102966","properties":{"addr:housenumber":"10","addr:postcode":"93047","addr:street":"Am Brixener Hof","amenity":"restaurant","cuisine":"asian","name":"Viet Thai Reis+Suppe","opening_hours":"Mo-Fr 11:00-15:00, 17:30-21:30; Sa 11:00-21:30","phone":"+49 941 3822 3475","id":"node/2896102966"},"geometry":{"type":"Point","coordinates":[12.0994989,49.0167704]}},{"type":"Feature","id":"node/3161532456","properties":{"addr:city":"Regensburg","addr:country":"DE","addr:housename":"Altes Rathaus","addr:housenumber":"1","addr:postcode":"93047","addr:street":"Rathausplatz","amenity":"restaurant","contact:email":"info@regensburger-ratskeller.de","contact:fax":"+49 941 28052221","contact:phone":"+49 941 28052222","contact:website":"https://www.regensburger-ratskeller.de/","cuisine":"bavarian","diet:vegetarian":"yes","name":"Regensburger Ratskeller","opening_hours":"Mo-Su 00:00-01:00,11:00-24:00","operator":"Deutsch Gastro Betriebe GmbH & Co. KG","wheelchair":"no","id":"node/3161532456"},"geometry":{"type":"Point","coordinates":[12.0949511,49.0202302]}},{"type":"Feature","id":"node/3185033608","properties":{"addr:city":"Regensburg","addr:country":"DE","addr:housenumber":"23","addr:postcode":"93047","addr:street":"Maximilianstraße","amenity":"restaurant","cuisine":"indian","name":"Ganesha","name:de":"Ganesha Indisches Spezialitäten","opening_hours":"Mo-Su 11:30-24:00","phone":"+49 941 5861994","toilets:wheelchair":"no","wheelchair":"yes","id":"node/3185033608"},"geometry":{"type":"Point","coordinates":[12.1004291,49.0159212]}},{"type":"Feature","id":"node/3678016461","properties":{"addr:city":"Regensburg","addr:country":"DE","addr:housenumber":"15","addr:postcode":"93047","addr:street":"Sankt-Peters-Weg","amenity":"restaurant","cuisine":"burger","name":"Buddies Burgerbar","opening_hours":"Mo-Sa 11:00-02:00, Su 17:00-01:00","website":"http://www.buddiesburgerbar.de/","id":"node/3678016461"},"geometry":{"type":"Point","coordinates":[12.0970433,49.0158255]}},{"type":"Feature","id":"node/3781257574","properties":{"addr:city":"Regensburg","addr:housenumber":"2","addr:postcode":"93047","addr:street":"Wollwirkergasse","amenity":"restaurant","cuisine":"sushi","diet:vegetarian":"yes","name":"Sushihaus","opening_hours":"Mo-Sa 11:30-15:00,17:00-23:00","phone":"+49 941 5676480","toilets:wheelchair":"no","website":"https://www.sushihaus-regensburg.de/","wheelchair":"no","id":"node/3781257574"},"geometry":{"type":"Point","coordinates":[12.0890594,49.0203675]}},{"type":"Feature","id":"node/3835887321","properties":{"addr:city":"Regensburg","addr:country":"DE","addr:housenumber":"1","addr:postcode":"93047","addr:street":"Fritz-Fend-Straße","amenity":"restaurant","cuisine":"pizza","name":"Il Baretto","opening_hours":"Mo-Fr 11:00-23:00","phone":"+49 941 64096696","toilets:wheelchair":"no","wheelchair":"no","id":"node/3835887321"},"geometry":{"type":"Point","coordinates":[12.0887224,49.0128505]}},{"type":"Feature","id":"node/3899781482","properties":{"addr:city":"Regensburg","addr:country":"DE","addr:housenumber":"1","addr:postcode":"93047","addr:street":"Adolph-Kolping-Straße","amenity":"restaurant","brewery":"Bischofshof","email":"info@kolpinghaus-regensburg.de","fax":"+49 941 59500 80","name":"Restaurant St. Erhard","opening_hours":"Tu-Fr 16:00-23:00; Sa 09:00-23:00; Su 11:00-15:00","operator":"Kolpinghaus- Gaststätten- Betriebs GmbH","outdoor_seating":"yes","phone":"+49 941 59500 0","toilets:wheelchair":"yes","website":"http://www.kolping-dev.de/restaurant/","wheelchair":"yes","id":"node/3899781482"},"geometry":{"type":"Point","coordinates":[12.1019238,49.0194189]}},{"type":"Feature","id":"node/4151886890","properties":{"addr:housenumber":"15","addr:street":"Haaggasse","amenity":"restaurant","description":"Kurdische Küche","diet:vegetarian":"yes","email":"info@lokanta-regensburg.com","name":"Lokanta","opening_hours":"Mo-Su 18:00-01:00","phone":"+4994153321","website":"http://www.lokanta-regensburg.de/","id":"node/4151886890"},"geometry":{"type":"Point","coordinates":[12.0872407,49.0206993]}},{"type":"Feature","id":"node/4238976197","properties":{"amenity":"restaurant","brand":"Hans im Glück","brand:wikidata":"Q22569868","brand:wikipedia":"de:Hans im Glück (Restaurantkette)","contact:website":"https://hansimglueck-burgergrill.de/standorte/regensburg-innenstadt/","cuisine":"burger","diet:vegetarian":"yes","name":"Hans im Glück","opening_hours":"Su-Th 11:00-24:00; Fr-Sa 11:00-01:00","outdoor_seating":"yes","id":"node/4238976197"},"geometry":{"type":"Point","coordinates":[12.0956407,49.020083]}},{"type":"Feature","id":"node/7685442718","properties":{"addr:housenumber":"1","addr:street":"Sarmanna-Straße","amenity":"restaurant","name":"Meridiano","opening_hours":"Mo 11:30-14:30; Tu-Fr 11:30-14:30, 17:30-22:00; Sa 17:30-22:00; Su 10:00-22:00","phone":"+49 941 4637 4460","website":"http://www.meridiano-regensburg.de","id":"node/7685442718"},"geometry":{"type":"Point","coordinates":[12.0833967,49.013307]}},{"type":"Feature","id":"node/5376248040","properties":{"addr:city":"Regensburg","addr:country":"DE","addr:housenumber":"11","addr:postcode":"93047","addr:street":"Obermünsterstraße","amenity":"restaurant","cuisine":"mexican","email":"info@guacamole-deutschland.de","name":"Guacamole","opening_hours":"Mo-Sa 11:00-22:00; Su 17:00-22:00","operator":"Guacamole GmbH","phone":"+49 941 20908700","takeaway":"yes","website":"http://www.guacamole-deutschland.de/","id":"node/5376248040"},"geometry":{"type":"Point","coordinates":[12.0966579,49.0165182]}},{"type":"Feature","id":"node/6087621525","properties":{"amenity":"restaurant","cuisine":"asian","diet:vegetarian":"yes","name":"Miss Hong Sushi&Soul Food","opening_hours":"Tu-Su 11:30-14:30, 17:00-23:00; Mo off","id":"node/6087621525"},"geometry":{"type":"Point","coordinates":[12.095435,49.0170443]}},{"type":"Feature","id":"node/6635322481","properties":{"addr:city":"Regensburg","addr:country":"DE","addr:housenumber":"6","addr:postcode":"93047","addr:street":"Rote-Stern-Gasse","amenity":"restaurant","cuisine":"vietnamese","diet:vegan":"yes","diet:vegetarian":"yes","name":"Kim Linh","opening_hours":"Mo-Fr 11:30-14:30,17:30-23:00; Tu off; Sa,Su 12:00-14:30,17:30-22:00","outdoor_seating":"yes","phone":"+49 941 59989942","id":"node/6635322481"},"geometry":{"type":"Point","coordinates":[12.0956549,49.0169427]}},{"type":"Feature","id":"node/5206977499","properties":{"addr:city":"Regensburg","addr:country":"DE","addr:housenumber":"11","addr:postcode":"93047","addr:street":"Drei-Mohren-Straße","amenity":"restaurant","building":"yes","contact:phone":"+49 941 5956550","cuisine":"french","name":"Mirabelle","wheelchair":"limited","wheelchair:description:de":"Toiletten im Keller (ohne Aufzug)","id":"node/5206977499"},"geometry":{"type":"Point","coordinates":[12.0901948,49.019248]}},{"type":"Feature","id":"node/6770513413","properties":{"amenity":"restaurant","check_date:opening_hours":"2019-09-03","cuisine":"turkish","diet:vegan":"yes","diet:vegetarian":"yes","name":"Çiğköftem","opening_hours":"Mo-We 11:00-21:00; Th-Sa 11:00-22:00; Su 12:00-20:00","operator":"Cengiz Aluz","id":"node/6770513413"},"geometry":{"type":"Point","coordinates":[12.0900384,49.0186127]}},{"type":"Feature","id":"node/6906703573","properties":{"addr:housenumber":"6","addr:street":"Wollwirkergasse","amenity":"restaurant","cuisine":"international","diet:vegetarian":"yes","name":"Sam","opening_hours":"Mo-Fr 11.00 - 22 Uhr, Sa 14 - 21 Uhr","phone":"+49 94163083334","id":"node/6906703573"},"geometry":{"type":"Point","coordinates":[12.0875846,49.0205741]}},{"type":"Feature","id":"node/7156496254","properties":{"addr:housenumber":"11","addr:postcode":"93047","addr:street":"Rote-Löwen-Straße","amenity":"restaurant","diet:vegan":"yes","diet:vegetarian":"only","name":"Kaffé Dada","opening_hours":"PH,Mo-Su 12:00+","opening_hours:kitchen":"Su-Th 12:00-22:00;Fr,Sa 12:00-23:00","outdoor_seating":"yes","phone":"+49 941 56993489","website":"https://kaffe-dada.com/","wheelchair":"limited","id":"node/7156496254"},"geometry":{"type":"Point","coordinates":[12.0893657,49.0202324]}},{"type":"Feature","id":"node/7298535986","properties":{"amenity":"restaurant","name":"Kneitinger","name:ru":"Кнайтингер","id":"node/7298535986"},"geometry":{"type":"Point","coordinates":[12.0891626,49.0197298]}},{"type":"Feature","id":"node/4530630758","properties":{"addr:city":"Regensburg","addr:housenumber":"10","addr:postcode":"93047","addr:street":"Goliathstraße","amenity":"restaurant","contact:email":"reservierung@hotel-goliath.de","contact:fax":"+49 941 200090 99","contact:phone":"+49 941 200090 0","internet_access":"wlan","name":"Goliath am Dom","stars":"4","toilets:wheelchair":"yes","tourism":"hotel","website":"www.hotel-goliath.de","wheelchair":"yes","id":"node/4530630758"},"geometry":{"type":"Point","coordinates":[12.0969613,49.0203262]}},{"type":"Feature","id":"node/5181366322","properties":{"addr:city":"Regensburg","addr:housenumber":"8","addr:postcode":"93047","addr:street":"Neupfarrplatz","amenity":"restaurant","level":"4","name":"DINEA","opening_hours":"Mo-Sa 09:00-20:00","operator":"DINEA Gastronomie GmbH","outdoor_seating":"yes","phone":"+49 941 5837220","toilets:wheelchair":"yes","website":"https://www.dinea.de/regensburg/","wheelchair":"yes","id":"node/5181366322"},"geometry":{"type":"Point","coordinates":[12.0972548,49.0183209]}},{"type":"Feature","id":"node/6087605620","properties":{"amenity":"restaurant","cuisine":"asian","diet:vegetarian":"yes","email":"oasia-regensburg@hotmail.com","name":"Oasia","opening_hours":"Mo-Su 11:30-15:00, 17:30-23:30","phone":"+49 941 462 913 71","website":"https://www.oasia-regensburg.de/","id":"node/6087605620"},"geometry":{"type":"Point","coordinates":[12.0936982,49.0183975]}},{"type":"Feature","id":"node/6174486985","properties":{"amenity":"restaurant","cuisine":"vietnamese","name":"Tien Tai","id":"node/6174486985"},"geometry":{"type":"Point","coordinates":[12.0975821,49.0207083]}},{"type":"Feature","id":"node/6511524284","properties":{"amenity":"restaurant","name":"Pizzeria Al Camino","id":"node/6511524284"},"geometry":{"type":"Point","coordinates":[12.0928115,49.0199391]}},{"type":"Feature","id":"node/7214899658","properties":{"addr:housenumber":"4","addr:street":"Blaue-Lilien-Gasse","amenity":"restaurant","contact:email":"hello@wanderlust-regensburg.de","contact:phone":"+49 9413 8225 807","cuisine":"poke_bowl","name":"Wanderlust","opening_hours":"Mo-Su 10:00-24:00","operator":"Blaue Lilie GmbH, Regensburg","organic":"yes","id":"node/7214899658"},"geometry":{"type":"Point","coordinates":[12.0957353,49.0207548]}},{"type":"Feature","id":"node/7298535987","properties":{"amenity":"restaurant","name:en":"huh","id":"node/7298535987"},"geometry":{"type":"Point","coordinates":[12.0930231,49.019536]}},{"type":"Feature","id":"node/4501153178","properties":{"addr:city":"Regensburg","addr:country":"DE","addr:housenumber":"4","addr:postcode":"93047","addr:street":"Minoritenweg","amenity":"restaurant","name":"Kantine Stadt Regensburg","opening_hours":"Mo-Fr 07:00-14:00","operator":"labora gemeinnützige GmbH","phone":"+49 941 5078948","id":"node/4501153178"},"geometry":{"type":"Point","coordinates":[12.1028721,49.0170214]}},{"type":"Feature","id":"node/6610634886","properties":{"addr:street":"Grasgasse","amenity":"restaurant","name":"Da Pietro e Fabio","opening_hours":"Mo-Th 11:30-14:00, 18:00-23:00; Fr-Sa 18:00-00:00","id":"node/6610634886"},"geometry":{"type":"Point","coordinates":[12.098657,49.0161039]}},{"type":"Feature","id":"node/6698830259","properties":{"amenity":"restaurant","email":"case_della_pasta_markthalle@yahoo.de","lunch":"yes","name":"Casa della Pasta","opening_hours":"Mo-Sa 09:00-19:30","opening_hours:kitchen":"Mo-Sa 11:00-18:00","operator":"Jeton Fischer","phone":"+49 941 38230622","phone:mobile":"+49 176 20654732","shop":"seafood","id":"node/6698830259"},"geometry":{"type":"Point","coordinates":[12.1014866,49.0173082]}},{"type":"Feature","id":"node/7907590214","properties":{"amenity":"restaurant","cuisine":"turkish","name":"Düdüklü","opening_hours":"Mo-Sa 10:00-21:00; Su, PH off","phone":"+49 941 46374477","website":"https://www.düdüklü.com/","id":"node/7907590214"},"geometry":{"type":"Point","coordinates":[12.1012179,49.0174337]}},{"type":"Feature","id":"node/5915331989","properties":{"addr:city":"Regensburg","addr:housenumber":"1","addr:postcode":"93047","addr:street":"Alter Kornmarkt","amenity":"restaurant","name":"Café Bistro La Chapelle","phone":"+49 941 50275984","toilets:wheelchair":"no","website":"http://www.la-chapelle-regensburg.de/","wheelchair":"limited","wheelchair:description":"ebenerdiger Zugang, aber keine Behindertentoilette","id":"node/5915331989"},"geometry":{"type":"Point","coordinates":[12.099697,49.0192393]}},{"type":"Feature","id":"node/6182150242","properties":{"amenity":"restaurant","cuisine":"greek","level":"1","name":"Der Grieche am Herzogshof","opening_hours":"Mo-Sa 17:30-22:00; Tu off; Su, PH 11:30-14:00,17:30-22:00","phone":"+49 941 5999303","website":"https://www.dergrieche-regensburg.de/","id":"node/6182150242"},"geometry":{"type":"Point","coordinates":[12.0999263,49.0192453]}},{"type":"Feature","id":"node/6518836127","properties":{"amenity":"restaurant","cuisine":"regional","diet:vegetarian":"yes","email":"servus@wirtshaus.bayern","name":"Wirtshaus im Museum","opening_hours":"Tu - Sa 09:00 - 22:00, Su 09:00 - 18:00","phone":"+49 941 5861461","website":"https://www.wirtshaus.bayern/","wheelchair":"limited","id":"node/6518836127"},"geometry":{"type":"Point","coordinates":[12.1019541,49.0203262]}},{"type":"Feature","id":"node/6885470324","properties":{"amenity":"restaurant","cuisine":"burger;bbq","name":"Burger Heart","opening_hours":"Sa, Su, PH 11:30-23:00; Mo - Fr 11:30-15:00, 17:00 -23:00","phone":"+49 941 46627330","website":"https://regensburg.burgerheart.com/","id":"node/6885470324"},"geometry":{"type":"Point","coordinates":[12.0993316,49.0178426]}},{"type":"Feature","id":"node/7009734710","properties":{"amenity":"restaurant","cuisine":"italian","email":"info@foodandwood.info","name":"food and wood","opening_hours":"Tu-Th 17:00 - 23:00, Sa 11:30 - 23:00, Su 11:30 - 14:00, 17:00 - 23:00","website":"https://www.foodandwood.info/","id":"node/7009734710"},"geometry":{"type":"Point","coordinates":[12.0980823,49.0189098]}},{"type":"Feature","id":"node/7298532289","properties":{"amenity":"restaurant","name:ru":"Вельтембургер  ан дом","id":"node/7298532289"},"geometry":{"type":"Point","coordinates":[12.0995078,49.018811]}}]}